OBJECT_NAME,OBJECT_ID,EPOCH,MEAN_MOTION,ECCENTRICITY,INCLINATION,RA_OF_ASC_NODE,ARG_OF_PERICENTER,MEAN_ANOMALY,EPHEMERIS_TYPE,CLASSIFICATION_TYPE,NORAD_CAT_ID,ELEMENT_SET_NO,REV_AT_EPOCH,BSTAR,MEAN_MOTION_DOT,MEAN_MOTION_DDOT
CUTE-1 (CO-55),2003-031E,2026-06-03T13:11:18.293856,14.24327019,.00086909,98.6736,163.2800,219.4250,140.6297,0,U,27844,999,18973,.16425086E-3,.336E-5,0
CUBESAT XI-IV (CO-57),2003-031J,2026-06-05T11:58:40.543104,14.23614506,.00084109,98.6767,164.9270,233.7946,126.2455,0,U,27848,999,18971,.13674905E-3,.268E-5,0
CUBESAT XI-V,2005-043F,2026-06-05T09:01:24.008448,14.72598573,.00129811,98.2974,311.7509,240.3240,119.6675,0,U,28895,999,10001,.2489675E-3,.1533E-4,0
SEEDS II (CO-66),2008-021J,2026-06-05T10:45:26.308224,15.32333038,.00028141,97.7518,153.7894,37.2994,322.8442,0,U,32791,999,98549,.61157616E-3,.19038E-3,0
SWISSCUBE,2009-051B,2026-06-05T11:15:38.778912,14.62458715,.00054307,98.4043,64.1532,246.3597,113.7034,0,U,35932,999,88744,.23506342E-3,.1141E-4,0
BEESAT-1,2009-051C,2026-06-05T12:59:02.832000,14.61701276,.00039028,98.3972,63.8860,263.9063,96.1693,0,U,35933,999,88748,.20332174E-3,.964E-5,0
ITUPSAT1,2009-051E,2026-06-04T16:47:20.224032,14.60421767,.0006134,98.4056,62.2366,280.9538,79.0971,0,U,35935,999,88691,.20796E-3,.958E-5,0
TISAT 1,2010-035E,2026-06-05T19:31:50.184192,15.31259677,.00002426,98.0705,102.3578,15.0993,345.0253,0,U,36799,999,86596,.77568907E-3,.23381E-3,0
AEROCUBE 4.5A,2012-048K,2026-06-05T20:29:19.003488,15.87856823,.00193642,64.6269,68.1366,214.6632,145.3266,0,U,38767,999,37085,.13020607E-2,.356874E-2,.52882308E-4
STRAND-1,2013-009E,2026-06-05T11:58:13.513728,14.37156205,.00073916,98.3919,337.0211,265.4490,94.5853,0,U,39090,999,69538,.11582659E-3,.302E-5,0
BRITE-AUSTRIA,2013-009F,2026-06-05T10:29:12.661440,14.36537301,.00089632,98.3993,336.1638,276.1708,83.8457,0,U,39091,999,69536,.79122189E-4,.19E-5,0
NEE-01 PEGASO,2013-018B,2026-06-06T03:28:43.868352,14.93606451,.00123353,98.1213,300.9315,194.3170,165.7701,0,U,39151,999,70905,.38147319E-3,.3971E-4,0
POPACS 2,2013-055E,2026-06-05T16:49:18.070176,14.90930971,.041728,80.9906,157.3383,230.7002,125.6522,0,U,39269,999,66150,.19010421E-3,.11134E-3,0
POPACS 3,2013-055F,2026-06-05T12:08:15.233568,14.55887656,.05531168,81.0023,241.8479,105.5298,260.7651,0,U,39270,999,63685,.28492394E-3,.12088E-3,0
ZACUBE-1 (TSHEPISOSAT),2013-066B,2026-06-06T03:24:53.606304,15.01117522,.00399437,97.8103,119.4196,286.6860,72.9981,0,U,39417,999,67907,.41430245E-3,.5332E-4,0
WNISAT-1,2013-066H,2026-06-06T03:53:40.737120,14.58045873,.01616727,97.7191,307.1019,266.6015,91.6681,0,U,39423,999,66512,.15244845E-3,.787E-5,0
TRITON-1,2013-066M,2026-06-06T06:54:33.814368,14.81665554,.00884318,97.8249,67.3430,270.0706,89.0374,0,U,39427,999,67247,.3019138E-3,.2484E-4,0
GOMX-1,2013-066Q,2026-06-06T06:58:48.563904,14.69417131,.01300874,97.6489,358.4404,112.1739,249.3332,0,U,39430,999,66831,.30976682E-3,.2037E-4,0
CUBEBUG-2 (LO-74),2013-066AA,2026-06-05T19:25:13.636704,14.93668030,.00594347,97.8908,105.7402,65.9901,294.7524,0,U,39440,999,67529,.51354385E-3,.556E-4,0
NEE-02 KRYSAOR,2013-066AB,2026-06-06T02:28:37.316352,14.86571757,.00676713,97.8890,96.3978,105.6781,255.1914,0,U,39441,999,67455,.31498207E-3,.2852E-4,0
FUNCUBE-1 (AO-73),2013-066AE,2026-06-06T04:25:51.817728,15.09358417,.00346556,97.8278,128.4023,239.5624,120.2179,0,U,39444,999,67800,.57635785E-3,.9267E-4,0
UWE-3,2013-066AG,2026-06-05T20:27:34.730784,14.96934199,.00491704,97.8697,112.8515,359.4628,0.6532,0,U,39446,999,67588,.44472521E-3,.5174E-4,0
BRITE-CA1 (TORONTO),2014-033L,2026-06-05T19:50:45.220128,14.72661285,.0077578,97.9727,285.9652,313.9957,45.4872,0,U,40020,999,64054,.12974E-3,.812E-5,0
DUCHIFAT-1,2014-033M,2026-06-05T10:29:13.596288,15.62240333,.00047091,98.0469,213.9698,135.9979,224.1653,0,U,40021,999,65391,.10320502E-2,.91631E-3,0
NANOSATC-BR1,2014-033Q,2026-06-05T01:13:17.194080,15.31055935,.00031768,98.0722,187.3677,199.6617,160.4501,0,U,40024,999,65212,.65634437E-3,.19638E-3,0
QB50P1,2014-033R,2026-06-05T06:52:12.859680,15.18070423,.0007025,98.0971,166.5996,264.5036,95.5395,0,U,40025,999,65122,.39735E-3,.8026E-4,0
QB50P2,2014-033Y,2026-06-05T11:25:52.777056,15.15001181,.00067663,98.0754,152.6291,203.3827,156.7096,0,U,40032,999,65089,.4339415E-3,.8036E-4,0
PERSEUS-M2,2014-033AD,2026-06-06T06:58:49.213632,14.95484909,.00114451,97.9977,107.6103,345.2085,14.8799,0,U,40037,999,64915,.26103863E-3,.2832E-4,0
